IRIDIUM 126             
1 42809U 17039G   25184.86420107  .00000163  00000+0  51216-4 0  9999
2 42809  86.3994 139.2600 0002510  83.5443 276.6038 14.34218575420020
IRIDIUM 124             
1 42810U 17039H   25184.73425659  .00000247  00000+0  67390-4 0  9997
2 42810  86.4475  76.0501 0002023  80.9305 279.2124 14.43277182424851
IRIDIUM 128             
1 42811U 17039J   25184.71540150  .00000031  00000+0  40166-5 0  9994
2 42811  86.4001 170.7944 0001894  81.3917 278.7493 14.34217477420039
IRIDIUM 121             
1 42812U 17039K   25184.95299702  .00000036  00000+0  57495-5 0  9993
2 42812  86.3994 139.2483 0002174  86.0839 274.0605 14.34217847419915
IRIDIUM 133             
1 42955U 17061A   25184.95642079  .00000075  00000+0  19580-4 0  9990
2 42955  86.3998 170.8026 0002299  85.7266 274.4192 14.34217930404865
IRIDIUM 100             
1 42956U 17061B   25184.88030859  .00000130  00000+0  39480-4 0  9993
2 42956  86.3995 170.7613 0002334  82.4280 277.7181 14.34218542404857
IRIDIUM 122             
1 42957U 17061C   25184.91836518 -.00000002  00000+0 -78113-5 0  9991
2 42957  86.4001 170.7447 0002237  84.9745 275.1706 14.34217392404865
IRIDIUM 129             
1 42958U 17061D   25184.94373643 -.00000049  00000+0 -24570-4 0  9998
2 42958  86.4002 170.7973 0002484  94.3016 265.8463 14.34216794404884
